ONEWEB-0358             
1 49284U 21090F   25232.80473484 -.00000002  00000+0 -36703-4 0  9997
2 49284  87.9301 334.2930 0001972 103.8267 256.3085 13.20772909190905
ONEWEB-0359             
1 49285U 21090G   25232.80158446  .00000018  00000+0  12013-4 0  9999
2 49285  87.9291 334.3034 0001875 112.0574 248.0759 13.20772227190881
ONEWEB-0360             
1 49286U 21090H   25232.79211721  .00000026  00000+0  30907-4 0  9995
2 49286  87.9292 334.3141 0001825 104.5928 255.5408 13.20770743190195
ONEWEB-0361             
1 49287U 21090J   25232.77318126  .00000051  00000+0  94534-4 0  9995
2 49287  87.9297 334.3128 0002074 100.4686 259.6681 13.20772264190647
ONEWEB-0362             
1 49288U 21090K   25232.79109334  .00000058  00000+0  11136-3 0  9990
2 49288  87.9262   4.7087 0001613  97.1424 262.9892 13.19726451187295
ONEWEB-0363             
1 49289U 21090L   25232.78896731 -.00000018  00000+0 -76007-4 0  9991
2 49289  87.9298 334.3053 0002295 103.4765 256.6624 13.20772451190656
ONEWEB-0364             
1 49290U 21090M   25232.82684273  .00000093  00000+0  19761-3 0  9998
2 49290  87.9289 334.3253 0002081 101.7934 258.3433 13.20770742191796
ONEWEB-0365             
1 49291U 21090N   25232.80056653  .00000041  00000+0  70786-4 0  9990
2 49291  87.9262   4.6616 0001747  94.0925 266.0408 13.19726837186808
ONEWEB-0366             
1 49292U 21090P   25232.84675072  .00000192  00000+0  48270-3 0  9996
2 49292  87.9090 349.4977 0001902 100.4048 259.7296 13.14501870188101
ONEWEB-0367             
1 49293U 21090Q   25232.78739152  .00000009  00000+0 -10766-4 0  9998
2 49293  87.9298 334.3011 0001711  97.9410 262.1917 13.20771762190179
ONEWEB-0368             
1 49294U 21090R   25232.83629609 -.00000011  00000+0 -59557-4 0  9995
2 49294  87.9299 334.3272 0002557  86.2248 273.9178 13.20772541191333
ONEWEB-0369             
1 49295U 21090S   25232.79583836  .00000045  00000+0  80219-4 0  9996
2 49295  87.9265   4.6938 0001818  95.1835 264.9505 13.19725533186798
ONEWEB-0370             
1 49296U 21090T   25234.23623424  .00000091  00000+0  19157-3 0  9999
2 49296  87.9303 334.0208 0001666 107.0639 253.0677 13.20773041190409
ONEWEB-0371             
1 49297U 21090U   25232.87953511 -.00000008  00000+0 -51762-4 0  9990
2 49297  87.9265   4.6669 0001713  96.2615 263.8713 13.19726777186849
ONEWEB-0372             
1 49298U 21090V   25232.78566680  .00000053  00000+0  99443-4 0  9994
2 49298  87.9291 334.3136 0001904  95.7516 264.3834 13.20771455190184
ONEWEB-0373             
1 49299U 21090W   25232.81261922 -.00000029  00000+0 -10205-3 0  9993
2 49299  87.9296 334.3208 0001931 102.5091 257.6258 13.20772502191376
ONEWEB-0374             
1 49300U 21090X   25232.83408270 -.00000011  00000+0 -63999-4 0  9997
2 49300  87.9083 349.4778 0002429  98.6397 261.5008 13.14504170188100
