[{"OBJECT_NAME":"ONEWEB-0358","OBJECT_ID":"2021-090F","EPOCH":"2025-08-20T19:18:49.090176","MEAN_MOTION":13.20772909,"ECCENTRICITY":0.0001972,"INCLINATION":87.9301,"RA_OF_ASC_NODE":334.293,"ARG_OF_PERICENTER":103.8267,"MEAN_ANOMALY":256.3085,"EPHEMERIS_TYPE":0,"CLASSIFICATION_TYPE":"U","NORAD_CAT_ID":49284,"ELEMENT_SET_NO":999,"REV_AT_EPOCH":19090,"BSTAR":-3.6703e-5,"MEAN_MOTION_DOT":-2.0e-8,"MEAN_MOTION_DDOT":0},{"OBJECT_NAME":"ONEWEB-0359","OBJECT_ID":"2021-090G","EPOCH":"2025-08-20T19:14:16.897344","MEAN_MOTION":13.20772227,"ECCENTRICITY":0.0001875,"INCLINATION":87.9291,"RA_OF_ASC_NODE":334.3034,"ARG_OF_PERICENTER":112.0574,"MEAN_ANOMALY":248.0759,"EPHEMERIS_TYPE":0,"CLASSIFICATION_TYPE":"U","NORAD_CAT_ID":49285,"ELEMENT_SET_NO":999,"REV_AT_EPOCH":19088,"BSTAR":1.2013e-5,"MEAN_MOTION_DOT":1.8e-7,"MEAN_MOTION_DDOT":0},{"OBJECT_NAME":"ONEWEB-0360","OBJECT_ID":"2021-090H","EPOCH":"2025-08-20T19:00:38.926944","MEAN_MOTION":13.20770743,"ECCENTRICITY":0.0001825,"INCLINATION":87.9292,"RA_OF_ASC_NODE":334.3141,"ARG_OF_PERICENTER":104.5928,"MEAN_ANOMALY":255.5408,"EPHEMERIS_TYPE":0,"CLASSIFICATION_TYPE":"U","NORAD_CAT_ID":49286,"ELEMENT_SET_NO":999,"REV_AT_EPOCH":19019,"BSTAR":3.0907e-5,"MEAN_MOTION_DOT":2.6e-7,"MEAN_MOTION_DDOT":0},{"OBJECT_NAME":"ONEWEB-0361","OBJECT_ID":"2021-090J","EPOCH":"2025-08-20T18:33:22.860864","MEAN_MOTION":13.20772264,"ECCENTRICITY":0.0002074,"INCLINATION":87.9297,"RA_OF_ASC_NODE":334.3128,"ARG_OF_PERICENTER":100.4686,"MEAN_ANOMALY":259.6681,"EPHEMERIS_TYPE":0,"CLASSIFICATION_TYPE":"U","NORAD_CAT_ID":49287,"ELEMENT_SET_NO":999,"REV_AT_EPOCH":19064,"BSTAR":9.4534e-5,"MEAN_MOTION_DOT":5.1e-7,"MEAN_MOTION_DDOT":0},{"OBJECT_NAME":"ONEWEB-0362","OBJECT_ID":"2021-090K","EPOCH":"2025-08-20T18:59:10.464576","MEAN_MOTION":13.19726451,"ECCENTRICITY":0.0001613,"INCLINATION":87.9262,"RA_OF_ASC_NODE":4.7087,"ARG_OF_PERICENTER":97.1424,"MEAN_ANOMALY":262.9892,"EPHEMERIS_TYPE":0,"CLASSIFICATION_TYPE":"U","NORAD_CAT_ID":49288,"ELEMENT_SET_NO":999,"REV_AT_EPOCH":18729,"BSTAR":0.00011136,"MEAN_MOTION_DOT":5.8e-7,"MEAN_MOTION_DDOT":0},{"OBJECT_NAME":"ONEWEB-0363","OBJECT_ID":"2021-090L","EPOCH":"2025-08-20T18:56:06.775584","MEAN_MOTION":13.20772451,"ECCENTRICITY":0.0002295,"INCLINATION":87.9298,"RA_OF_ASC_NODE":334.3053,"ARG_OF_PERICENTER":103.4765,"MEAN_ANOMALY":256.6624,"EPHEMERIS_TYPE":0,"CLASSIFICATION_TYPE":"U","NORAD_CAT_ID":49289,"ELEMENT_SET_NO":999,"REV_AT_EPOCH":19065,"BSTAR":-7.6007e-5,"MEAN_MOTION_DOT":-1.8e-7,"MEAN_MOTION_DDOT":0},{"OBJECT_NAME":"ONEWEB-0364","OBJECT_ID":"2021-090M","EPOCH":"2025-08-20T19:50:39.211872","MEAN_MOTION":13.20770742,"ECCENTRICITY":0.0002081,"INCLINATION":87.9289,"RA_OF_ASC_NODE":334.3253,"ARG_OF_PERICENTER":101.7934,"MEAN_ANOMALY":258.3433,"EPHEMERIS_TYPE":0,"CLASSIFICATION_TYPE":"U","NORAD_CAT_ID":49290,"ELEMENT_SET_NO":999,"REV_AT_EPOCH":19179,"BSTAR":0.00019761,"MEAN_MOTION_DOT":9.3e-7,"MEAN_MOTION_DDOT":0},{"OBJECT_NAME":"ONEWEB-0365","OBJECT_ID":"2021-090N","EPOCH":"2025-08-20T19:12:48.948192","MEAN_MOTION":13.19726837,"ECCENTRICITY":0.0001747,"INCLINATION":87.9262,"RA_OF_ASC_NODE":4.6616,"ARG_OF_PERICENTER":94.0925,"MEAN_ANOMALY":266.0408,"EPHEMERIS_TYPE":0,"CLASSIFICATION_TYPE":"U","NORAD_CAT_ID":49291,"ELEMENT_SET_NO":999,"REV_AT_EPOCH":18680,"BSTAR":7.0786e-5,"MEAN_MOTION_DOT":4.1e-7,"MEAN_MOTION_DDOT":0},{"OBJECT_NAME":"ONEWEB-0366","OBJECT_ID":"2021-090P","EPOCH":"2025-08-20T20:19:19.262208","MEAN_MOTION":13.1450187,"ECCENTRICITY":0.0001902,"INCLINATION":87.909,"RA_OF_ASC_NODE":349.4977,"ARG_OF_PERICENTER":100.4048,"MEAN_ANOMALY":259.7296,"EPHEMERIS_TYPE":0,"CLASSIFICATION_TYPE":"U","NORAD_CAT_ID":49292,"ELEMENT_SET_NO":999,"REV_AT_EPOCH":18810,"BSTAR":0.0004827,"MEAN_MOTION_DOT":1.92e-6,"MEAN_MOTION_DDOT":0},{"OBJECT_NAME":"ONEWEB-0367","OBJECT_ID":"2021-090Q","EPOCH":"2025-08-20T18:53:50.627328","MEAN_MOTION":13.20771762,"ECCENTRICITY":0.0001711,"INCLINATION":87.9298,"RA_OF_ASC_NODE":334.3011,"ARG_OF_PERICENTER":97.941,"MEAN_ANOMALY":262.1917,"EPHEMERIS_TYPE":0,"CLASSIFICATION_TYPE":"U","NORAD_CAT_ID":49293,"ELEMENT_SET_NO":999,"REV_AT_EPOCH":19017,"BSTAR":-1.0766e-5,"MEAN_MOTION_DOT":9.0e-8,"MEAN_MOTION_DDOT":0},{"OBJECT_NAME":"ONEWEB-0368","OBJECT_ID":"2021-090R","EPOCH":"2025-08-20T20:04:15.982176","MEAN_MOTION":13.20772541,"ECCENTRICITY":0.0002557,"INCLINATION":87.9299,"RA_OF_ASC_NODE":334.3272,"ARG_OF_PERICENTER":86.2248,"MEAN_ANOMALY":273.9178,"EPHEMERIS_TYPE":0,"CLASSIFICATION_TYPE":"U","NORAD_CAT_ID":49294,"ELEMENT_SET_NO":999,"REV_AT_EPOCH":19133,"BSTAR":-5.9557e-5,"MEAN_MOTION_DOT":-1.1e-7,"MEAN_MOTION_DDOT":0},{"OBJECT_NAME":"ONEWEB-0369","OBJECT_ID":"2021-090S","EPOCH":"2025-08-20T19:06:00.434304","MEAN_MOTION":13.19725533,"ECCENTRICITY":0.0001818,"INCLINATION":87.9265,"RA_OF_ASC_NODE":4.6938,"ARG_OF_PERICENTER":95.1835,"MEAN_ANOMALY":264.9505,"EPHEMERIS_TYPE":0,"CLASSIFICATION_TYPE":"U","NORAD_CAT_ID":49295,"ELEMENT_SET_NO":999,"REV_AT_EPOCH":18679,"BSTAR":8.0219e-5,"MEAN_MOTION_DOT":4.5e-7,"MEAN_MOTION_DDOT":0},{"OBJECT_NAME":"ONEWEB-0370","OBJECT_ID":"2021-090T","EPOCH":"2025-08-22T05:40:10.638336","MEAN_MOTION":13.20773041,"ECCENTRICITY":0.00016665,"INCLINATION":87.9303,"RA_OF_ASC_NODE":334.0208,"ARG_OF_PERICENTER":107.0639,"MEAN_ANOMALY":253.0677,"EPHEMERIS_TYPE":0,"CLASSIFICATION_TYPE":"U","NORAD_CAT_ID":49296,"ELEMENT_SET_NO":999,"REV_AT_EPOCH":19040,"BSTAR":0.0001915692,"MEAN_MOTION_DOT":9.1e-7,"MEAN_MOTION_DDOT":0},{"OBJECT_NAME":"ONEWEB-0371","OBJECT_ID":"2021-090U","EPOCH":"2025-08-20T21:06:31.833504","MEAN_MOTION":13.19726777,"ECCENTRICITY":0.0001713,"INCLINATION":87.9265,"RA_OF_ASC_NODE":4.6669,"ARG_OF_PERICENTER":96.2615,"MEAN_ANOMALY":263.8713,"EPHEMERIS_TYPE":0,"CLASSIFICATION_TYPE":"U","NORAD_CAT_ID":49297,"ELEMENT_SET_NO":999,"REV_AT_EPOCH":18684,"BSTAR":-5.1762e-5,"MEAN_MOTION_DOT":-8.0e-8,"MEAN_MOTION_DDOT":0},{"OBJECT_NAME":"ONEWEB-0372","OBJECT_ID":"2021-090V","EPOCH":"2025-08-20T18:51:21.611520","MEAN_MOTION":13.20771455,"ECCENTRICITY":0.0001904,"INCLINATION":87.9291,"RA_OF_ASC_NODE":334.3136,"ARG_OF_PERICENTER":95.7516,"MEAN_ANOMALY":264.3834,"EPHEMERIS_TYPE":0,"CLASSIFICATION_TYPE":"U","NORAD_CAT_ID":49298,"ELEMENT_SET_NO":999,"REV_AT_EPOCH":19018,"BSTAR":9.9443e-5,"MEAN_MOTION_DOT":5.3e-7,"MEAN_MOTION_DDOT":0},{"OBJECT_NAME":"ONEWEB-0373","OBJECT_ID":"2021-090W","EPOCH":"2025-08-20T19:30:10.300608","MEAN_MOTION":13.20772502,"ECCENTRICITY":0.0001931,"INCLINATION":87.9296,"RA_OF_ASC_NODE":334.3208,"ARG_OF_PERICENTER":102.5091,"MEAN_ANOMALY":257.6258,"EPHEMERIS_TYPE":0,"CLASSIFICATION_TYPE":"U","NORAD_CAT_ID":49299,"ELEMENT_SET_NO":999,"REV_AT_EPOCH":19137,"BSTAR":-0.00010205,"MEAN_MOTION_DOT":-2.9e-7,"MEAN_MOTION_DDOT":0},{"OBJECT_NAME":"ONEWEB-0374","OBJECT_ID":"2021-090X","EPOCH":"2025-08-20T20:01:04.745280","MEAN_MOTION":13.1450417,"ECCENTRICITY":0.0002429,"INCLINATION":87.9083,"RA_OF_ASC_NODE":349.4778,"ARG_OF_PERICENTER":98.6397,"MEAN_ANOMALY":261.5008,"EPHEMERIS_TYPE":0,"CLASSIFICATION_TYPE":"U","NORAD_CAT_ID":49300,"ELEMENT_SET_NO":999,"REV_AT_EPOCH":18810,"BSTAR":-6.3999e-5,"MEAN_MOTION_DOT":-1.1e-7,"MEAN_MOTION_DDOT":0}]
